[{"OBJECT_NAME":"VSP ROSE","OBJECT_ID":"2024-043AC","EPOCH":"2026-03-09T21:48:06.922944","MEAN_MOTION":15.27746075,"ECCENTRICITY":0.00099339,"INCLINATION":97.5443,"RA_OF_ASC_NODE":203.927,"ARG_OF_PERICENTER":232.2702,"MEAN_ANOMALY":127.7637,"EPHEMERIS_TYPE":0,"CLASSIFICATION_TYPE":"U","NORAD_CAT_ID":59124,"ELEMENT_SET_NO":999,"REV_AT_EPOCH":11182,"BSTAR":0.00025731354,"MEAN_MOTION_DOT":6.907e-5,"MEAN_MOTION_DDOT":0},{"OBJECT_NAME":"STARLINK-31669","OBJECT_ID":"2024-073E","EPOCH":"2026-03-09T23:38:51.393120","MEAN_MOTION":15.27578319,"ECCENTRICITY":7.807e-5,"INCLINATION":43,"RA_OF_ASC_NODE":316.1115,"ARG_OF_PERICENTER":250.8093,"MEAN_ANOMALY":109.2674,"EPHEMERIS_TYPE":0,"CLASSIFICATION_TYPE":"U","NORAD_CAT_ID":59515,"ELEMENT_SET_NO":999,"REV_AT_EPOCH":10622,"BSTAR":2.0974394e-5,"MEAN_MOTION_DOT":3.15e-6,"MEAN_MOTION_DDOT":0}]
